Example116.54  0.15 J97BF 330.98425   72.21006   47.85654    0.14252  0.5752786  0.25519137   2.4616449    FO 250221    20   1   23 days 0.43         Find_Orb   0000 Example1                    19971115
